OBJECT_NAME,OBJECT_ID,EPOCH,MEAN_MOTION,ECCENTRICITY,INCLINATION,RA_OF_ASC_NODE,ARG_OF_PERICENTER,MEAN_ANOMALY,EPHEMERIS_TYPE,CLASSIFICATION_TYPE,NORAD_CAT_ID,ELEMENT_SET_NO,REV_AT_EPOCH,BSTAR,MEAN_MOTION_DOT,MEAN_MOTION_DDOT
LEMUR-2-ROUNDTRIPPER,2025-009DG,2026-07-23T05:14:19.937184,15.04319119,.0004279,97.7239,286.8567,48.2093,311.9498,0,U,62711,999,8304,.55869E-3,.7728E-4,0
LEMUR-2-MYNAMEISJEFF,2025-009DH,2026-07-23T11:35:21.361632,15.04317939,.0004252,97.7285,287.5241,80.9119,279.2587,0,U,62712,999,8308,.58065E-3,.8034E-4,0
LEMUR-2-LEIA-PHILIP,2025-052AN,2026-07-23T03:43:59.873376,14.97399507,.0005108,97.6784,95.4948,103.2748,256.9044,0,U,63246,999,7405,.84898E-4,.929E-5,0
LEMUR-2-LIA-MARTIN,2025-052AQ,2026-07-23T09:55:54.240672,14.98068559,.000461,97.6842,96.2818,69.6193,290.5524,0,U,63248,999,7410,.31591E-3,.3679E-4,0
LEMUR-2-DELOITTE-1,2025-052BB,2026-07-23T12:42:04.216608,14.97832388,.0002446,97.6887,96.7258,52.2157,307.9287,0,U,63259,999,7413,.31917E-3,.3695E-4,0
LEMUR-2-EMERSONROSE,2025-052BD,2026-07-23T03:13:48.474048,14.99336545,.00022045,97.6884,96.9686,40.2656,319.8730,0,U,63261,999,7412,.29084977E-3,.3496E-4,0
LEMUR-2-MARACHE-FRAN,2025-052BE,2026-07-23T16:27:02.975040,15.00361304,.0006279,97.6805,97.8861,219.6562,140.4203,0,U,63262,999,7423,.34883E-3,.4321E-4,0
LEMUR-2-THEFALCONER,2025-052BG,2026-07-23T16:40:11.576352,14.97596680,.0001117,97.6806,96.4689,194.4097,165.7093,0,U,63264,999,7415,.2898E-3,.3329E-4,0
LEMUR-2-UNTITLED-SC,2025-061A,2026-07-23T20:18:07.144992,15.13689839,.0020024,97.5659,179.9506,134.5995,225.6874,0,U,63351,999,7313,.19142E-3,.3394E-4,0
LEMUR-2-ESPERANZA,2025-061B,2026-07-23T21:16:54.962400,15.13795610,.0019648,97.5667,180.0935,133.8781,226.4077,0,U,63352,999,7314,.21583E-3,.3846E-4,0
LEMUR-2-KREMPEL-BRO2,2025-061C,2026-07-23T08:59:25.883232,15.14220632,.0020674,97.5715,180.1640,128.5364,231.7724,0,U,63353,999,7308,.19241E-3,.3465E-4,0
LEMUR-2-THERMORAPTOR,2025-061D,2026-07-23T19:36:51.951744,15.14307270,.0020427,97.5719,180.6872,126.1097,234.2029,0,U,63354,999,7315,.22654E-3,.4101E-4,0
LEMUR-2-NEUROSPICY,2025-061E,2026-07-23T20:27:08.390016,15.14425777,.0018282,97.5644,180.3197,128.8962,231.3903,0,U,63355,999,7316,.19455E-3,.3521E-4,0
LEMUR-2-TILLINFINITY,2025-061F,2026-07-23T19:22:27.054048,15.15017047,.0019688,97.5631,180.5913,118.2874,242.0348,0,U,63356,999,7318,.26866E-3,.4975E-4,0
LEMUR-2-KREMPEL-BRO1,2025-061G,2026-07-23T20:26:07.038240,15.14817322,.0020308,97.5631,180.5411,119.3504,240.9759,0,U,63357,999,7318,.19366E-3,.3547E-4,0
LEMUR-2-LANGER2SPACE,2025-061H,2026-07-23T21:14:53.994624,15.14510647,.0018147,97.5637,180.3739,127.1496,233.1396,0,U,63358,999,7317,.21797E-3,.3962E-4,0
LEMUR-2-BALTO,2025-052BH,2026-07-23T06:27:53.123040,15.00412940,.0005024,97.6918,97.4751,291.9274,68.1415,0,U,63395,999,7417,.33428E-3,.4144E-4,0
LEMUR-2-KRISH,2025-135AK,2026-07-23T07:37:53.720832,14.96495776,.0001289,97.7759,318.9566,111.5369,248.5989,0,U,64561,999,5932,.42741E-3,.4798E-4,0
LEMUR-2-HUBBLE-4,2025-135AP,2026-07-23T18:47:17.894400,14.93702488,.0003303,97.7723,318.2683,142.4259,217.7192,0,U,64565,999,5933,.13394E-3,.136E-4,0
LEMUR-2-SEJONG-2,2025-135BL,2026-07-23T19:18:19.785024,14.96972730,.0004488,97.7714,319.5855,180.2423,179.8797,0,U,64586,999,5942,.53103E-3,.6051E-4,0
LEMUR-2-HUBBLE-5,2025-135BT,2026-07-23T18:55:39.856800,14.94230571,.0005018,97.7743,318.9523,201.3697,158.7314,0,U,64840,999,5937,.15148E-3,.1567E-4,0
LEMUR-2-KARENDARRELL,2025-135BU,2026-07-23T06:21:59.330592,15.00584303,.0013037,97.7721,320.4320,80.3476,279.9220,0,U,64841,999,5942,.6026E-3,.7565E-4,0
LEMUR-2-LUCILLE-ROSE,2025-135BV,2026-07-23T18:32:05.244288,15.00573199,.0015659,97.7686,320.9716,163.5108,196.6628,0,U,65403,999,5412,.56043E-3,.7034E-4,0
LEMUR-2-AFFIE-WAUWIE,2025-248C,2026-07-23T05:06:26.155008,15.28503726,.00093333,45.3913,279.5994,293.1633,66.8272,0,U,66295,999,4010,.74289393E-3,.20771E-3,0
OTTER SDM,2025-276N,2026-07-23T20:27:30.000384,15.20134767,.0004914,97.4196,277.7261,215.3658,144.7252,0,U,66678,999,3598,.29271E-3,.6263E-4,0
LEMUR-2-STAS-GORBUK,2025-276W,2026-07-23T03:38:41.930016,15.19715909,.000425,97.4227,277.0873,212.6305,147.4668,0,U,66686,999,3587,.26035E-3,.5495E-4,0
LEMUR-2-TEODOR,2025-276DG,2026-07-23T14:56:03.702048,15.21404015,.0002058,97.4135,277.8327,82.4426,277.7043,0,U,66768,999,3598,.26013E-3,.5768E-4,0
LEMUR-2-LAILA,2025-276DQ,2026-07-23T20:29:33.190368,15.21634804,.0002749,97.4158,278.2050,81.5647,278.5901,0,U,66776,999,3602,.2575E-3,.5748E-4,0
LEMUR-2-CELIJO-SB-PK,2025-276DW,2026-07-23T10:55:11.987904,15.00352890,.0006513,97.5182,274.0339,44.3861,315.7884,0,U,66781,999,2806,.49253E-3,.6129E-4,0
LEMUR-2-FINNIAN,2025-276DX,2026-07-23T14:57:47.641248,15.00686558,.0006873,97.5352,274.4854,326.1905,33.8880,0,U,66782,999,2546,.4467E-3,.5601E-4,0
